     2.11           N: GPS NAV DATA                         RINEX VERSION / TYPE
teqc  2019Feb25                         20221121 12:25:37UTCPGM / RUN BY / DATE
OSX ker:10.11.6|Core i5|gcc 4.3 -m64|OSX ker:10.10+|=+      COMMENT
    4.6566D-09  1.4901D-08 -5.9605D-08 -5.9605D-08          ION ALPHA
    7.9872D+04  6.5536D+04 -6.5536D+04 -3.9322D+05          ION BETA
    5.587935447693D-09 1.421085471520D-14   233472     1542 DELTA-UTC: A0,A1,T,W
                                                            END OF HEADER
17 09  7 27  0  0  0.0 7.305759936571D-05 2.614797267597D-12 0.000000000000D+00
    5.300000000000D+01-2.618750000000D+01 4.555189741937D-09-2.861296091073D+00
   -1.372769474983D-06 4.585536895320D-03 1.123733818531D-05 5.153716621399D+03
    8.640000000000D+04-2.980232238770D-08-2.551995492353D+00-1.583248376846D-07
    9.599777716132D-01 1.597500000000D+02-2.631962389375D+00-7.903186342291D-09
   -3.025126008641D-10 1.000000000000D+00 1.542000000000D+03 0.000000000000D+00
    2.000000000000D+00 0.000000000000D+00-1.024454832077D-08 5.300000000000D+01
    8.422800000000D+04 4.000000000000D+00
22 09  7 27  0  0  0.0 1.946450211108D-04-9.094947017729D-13 0.000000000000D+00
    8.800000000000D+01-3.906250000000D+00 5.071282667850D-09-2.560878556220D+00
   -1.732259988785D-07 5.216849618591D-03 4.054978489876D-06 5.153657258987D+03
    8.640000000000D+04 3.911554813385D-08-4.414623939836D-01-4.097819328308D-08
    9.392446177998D-01 2.913125000000D+02-1.896071487697D+00-8.408564536178D-09
   -2.564392531528D-10 1.000000000000D+00 1.542000000000D+03 0.000000000000D+00
    2.800000000000D+00 0.000000000000D+00-1.769512891769D-08 8.800000000000D+01
    7.921800000000D+04 4.000000000000D+00
26 09  7 27  0  0  0.0 6.477395072579D-05 0.000000000000D+00 0.000000000000D+00
    5.400000000000D+01-3.365625000000D+01 3.538718830415D-09 4.168894327754D-01
   -1.575797796249D-06 2.026685327291D-02 9.346753358841D-06 5.154910566330D+03
    8.640000000000D+04-4.004687070847D-07 6.283298367340D-01 1.825392246246D-07
    9.926648562243D-01 2.215937500000D+02 1.027212022155D+00-7.837469319199D-09
   -2.064371703653D-10 1.000000000000D+00 1.542000000000D+03 0.000000000000D+00
    2.000000000000D+00 0.000000000000D+00-6.519258022308D-09 5.400000000000D+01
    8.305800000000D+04 4.000000000000D+00
19 09  7 27  0  0  0.0 1.756753772497D-05-1.477928890381D-12 0.000000000000D+00
    2.700000000000D+01-1.393750000000D+01 4.660908431259D-09 2.807638975490D+00
   -6.351619958878D-07 5.777304177172D-03 1.122988760471D-05 5.153637565613D+03
    8.640000000000D+04-1.210719347000D-07-2.496132082720D+00 1.471489667892D-07
    9.576419507969D-01 1.615937500000D+02-3.132965155660D-01-7.895328872139D-09
   -1.257195224370D-10 1.000000000000D+00 1.542000000000D+03 0.000000000000D+00
    2.000000000000D+00 0.000000000000D+00-1.443549990654D-08 2.700000000000D+01
    7.921800000000D+04 4.000000000000D+00
11 09  7 27  0  0  0.0-1.232698559761D-05-1.591615728103D-12 0.000000000000D+00
    8.100000000000D+01 7.356250000000D+01 6.355621880019D-09 5.258588357884D-01
    4.075467586517D-06 9.555164608173D-03 8.786097168922D-06 5.153694746017D+03
    8.640000000000D+04-2.980232238770D-08-1.739719408651D+00 1.378357410431D-07
    8.889174446253D-01 1.685000000000D+02 7.066017866292D-01-9.048234038124D-09
   -1.714357124141D-11 1.000000000000D+00 1.542000000000D+03 0.000000000000D+00
    2.000000000000D+00 0.000000000000D+00-1.164153218269D-08 8.100000000000D+01
    7.921800000000D+04 4.000000000000D+00
27 09  7 27  0  0  0.0 6.900634616613D-05 3.296918293927D-12 0.000000000000D+00
    3.500000000000D+01 2.250000000000D+01 4.046597128442D-09 3.072838991461D+00
    9.294599294662D-07 2.130669017788D-02 8.294358849525D-06 5.153764219284D+03
    8.640000000000D+04 4.116445779800D-07 1.561544715828D+00-4.097819328308D-08
    9.748733629543D-01 2.220937500000D+02-1.567362944375D+00-7.583530170185D-09
    4.707338936704D-10 1.000000000000D+00 1.542000000000D+03 0.000000000000D+00
    2.000000000000D+00 0.000000000000D+00-4.190951585770D-09 3.500000000000D+01
    8.323800000000D+04 4.000000000000D+00
28 09  7 27  0  0  0.0-2.605328336358D-05-1.136868377216D-13 0.000000000000D+00
    4.400000000000D+01-4.518750000000D+01 4.736625870908D-09-2.320503911879D+00
   -2.427026629448D-06 1.496375037823D-02 5.114823579788D-06 5.153645317078D+03
    8.640000000000D+04 2.123415470123D-07 2.697207878860D+00 2.048909664154D-08
    9.674291521645D-01 2.784062500000D+02-2.021065211124D+00-8.041406385425D-09
    1.525063525017D-10 1.000000000000D+00 1.542000000000D+03 0.000000000000D+00
    2.000000000000D+00 0.000000000000D+00-1.071020960808D-08 4.400000000000D+01
    7.921800000000D+04 4.000000000000D+00
 9 09  7 27  0  0  0.0 6.867619231343D-05 2.046363078989D-12 0.000000000000D+00
    1.040000000000D+02 1.775000000000D+01 4.233747781160D-09-2.598335350640D-01
    8.195638656616D-07 2.074185328092D-02 8.428469300270D-06 5.153628973007D+03
    8.640000000000D+04-2.421438694000D-07 1.585770055517D+00 1.434236764908D-07
    9.768210116246D-01 2.340000000000D+02 1.497822460535D+00-8.283916486944D-09
    5.410939673071D-10 1.000000000000D+00 1.542000000000D+03 0.000000000000D+00
    2.800000000000D+00 0.000000000000D+00-5.587935447693D-09 1.040000000000D+02
    8.548800000000D+04 4.000000000000D+00
32 09  7 27  0  0  0.0 2.254862338305D-04-6.252776074689D-12 0.000000000000D+00
    1.200000000000D+01-1.531250000000D+01 4.656265380714D-09 1.435215506190D+00
   -1.145526766777D-06 1.323317852803D-02 4.101544618607D-06 5.153763969421D+03
    8.640000000000D+04 2.831220626831D-07-3.900865733344D-01-2.216547727585D-07
    9.632977310685D-01 2.975625000000D+02-1.139641011377D+00-8.270344493045D-09
   -3.585863651329D-10 1.000000000000D+00 1.542000000000D+03 0.000000000000D+00
    2.000000000000D+00 0.000000000000D+00-3.259629011154D-09 1.200000000000D+01
    8.578800000000D+04 4.000000000000D+00
19 09  7 27  2  0  0.0 1.755729317665D-05-1.477928890381D-12 0.000000000000D+00
    2.800000000000D+01-1.815625000000D+01 4.607334771129D-09-2.425350804430D+00
   -8.884817361832D-07 5.776504171081D-03 1.113675534725D-05 5.153639011383D+03
    9.360000000000D+04-1.732259988785D-07-2.496188944883D+00 2.980232238770D-08
    9.576411374144D-01 1.663750000000D+02-3.132888528011D-01-7.900329080417D-09
   -9.607543049875D-11 1.000000000000D+00 1.542000000000D+03 0.000000000000D+00
    2.000000000000D+00 0.000000000000D+00-1.443549990654D-08 2.800000000000D+01
    8.641800000000D+04 4.000000000000D+00
11 09  7 27  2  0  0.0-1.233909279108D-05-1.591615728103D-12 0.000000000000D+00
    8.500000000000D+01 6.546875000000D+01 6.359550615095D-09 1.575931570093D+00
    3.533437848091D-06 9.555289638229D-03 9.294599294662D-06 5.153696575165D+03
    9.360000000000D+04-2.365559339523D-07-1.739785038082D+00 1.490116119385D-07
    8.889176435822D-01 1.645000000000D+02 7.067107652486D-01-8.970016494335D-09
    8.928943354902D-11 1.000000000000D+00 1.542000000000D+03 0.000000000000D+00
    2.000000000000D+00 0.000000000000D+00-1.164153218269D-08 8.500000000000D+01
    8.641800000000D+04 4.000000000000D+00
28 09  7 27  2  0  0.0-2.605374902487D-05-1.136868377216D-13 0.000000000000D+00
    4.500000000000D+01-4.178125000000D+01 4.739483132782D-09-1.270336613088D+00
   -1.778826117516D-06 1.496382988989D-02 5.288049578667D-06 5.153644386292D+03
    9.360000000000D+04 1.955777406693D-07 2.697150212092D+00 2.924352884293D-07
    9.674293204001D-01 2.771875000000D+02-2.021032937688D+00-8.232842930954D-09
    6.785996949726D-11 1.000000000000D+00 1.542000000000D+03 0.000000000000D+00
    2.800000000000D+00 0.000000000000D+00-1.071020960808D-08 4.500000000000D+01
    8.641800000000D+04 4.000000000000D+00
17 09  7 27  2  0  0.0 7.307622581720D-05 2.614797267597D-12 0.000000000000D+00
    6.300000000000D+01-2.293750000000D+01 4.633050127992D-09-1.811338255817D+00
   -1.182779669762D-06 4.585752962157D-03 1.086853444576D-05 5.153715122223D+03
    9.360000000000D+04 1.452863216400D-07-2.552053750140D+00 2.793967723846D-08
    9.599761316820D-01 1.683437500000D+02-2.631764529705D+00-7.966403261244D-09
   -1.003613233091D-10 1.000000000000D+00 1.542000000000D+03 0.000000000000D+00
    2.000000000000D+00 0.000000000000D+00-1.024454832077D-08 6.300000000000D+01
    8.641800000000D+04 4.000000000000D+00
26 09  7 27  2  0  0.0 6.477348506451D-05 0.000000000000D+00 0.000000000000D+00
    5.500000000000D+01-5.368750000000D+01 3.533361464402D-09 1.466172791113D+00
   -2.911314368248D-06 2.026822289918D-02 1.006387174129D-05 5.154916313171D+03
    9.360000000000D+04-3.315508365631D-07 6.282738625625D-01-1.750886440277D-07
    9.926624672791D-01 2.122500000000D+02 1.027345343732D+00-7.814968381945D-09
   -3.557291032593D-10 1.000000000000D+00 1.542000000000D+03 0.000000000000D+00
    2.000000000000D+00 0.000000000000D+00-6.519258022308D-09 5.500000000000D+01
    8.641800000000D+04 4.000000000000D+00
 9 09  7 27  2  0  0.0 6.869109347463D-05 2.046363078989D-12 0.000000000000D+00
    1.050000000000D+02 1.275000000000D+01 4.115171413407D-09 7.903461678103D-01
    5.532056093216D-07 2.074391534552D-02 8.888542652130D-06 5.153633113861D+03
    9.360000000000D+04-2.309679985046D-07 1.585711173064D+00-1.043081283569D-07
    9.768240764380D-01 2.201562500000D+02 1.497846664514D+00-8.286773748818D-09
    3.703725703613D-10 1.000000000000D+00 1.542000000000D+03 0.000000000000D+00
    2.800000000000D+00 0.000000000000D+00-5.587935447693D-09 1.050000000000D+02
    8.641800000000D+04 4.000000000000D+00
